NORAD_CAT_ID,OBJECT_NAME,OBJECT_TYPE,EPOCH,MEAN_MOTION,ECCENTRICITY,INCLINATION,RA_OF_ASC_NODE,ARG_OF_PERICENTER,MEAN_ANOMALY,BSTAR,MEAN_MOTION_DOT,MEAN_MOTION_DDOT,TLE_LINE0,TLE_LINE1,TLE_LINE2,SEMIMAJOR_AXIS,PERIOD,APOGEE,PERIGEE,DECAYED
51138.0,STARLINK-3177,PAYLOAD,2022-03-08 20:00:01,15.73184221,0.0003483,53.2167,32.9998,9.0734,137.0763,-0.004032,-0.00532122,0.0,0 STARLINK-3177,1 51138U 22005AL  22067.83334491 -.00532122  00000-0 -40320-2 0  9997,2 51138  53.2167  32.9998 0003483   9.0734 137.0763 15.73184221  8992,6727.94,91.534,352.149,347.462,0.0
51138.0,STARLINK-3177,PAYLOAD,2022-03-08 22:00:00,15.73171514,0.0003337,53.2172,32.5855,7.2184,251.1198,-0.0052985,-0.00686154,0.0,0 STARLINK-3177,1 51138U 22005AL  22067.91667824 -.00686154  00000-0 -52985-2 0  9990,2 51138  53.2172  32.5855 0003337   7.2184 251.1198 15.73171514  3708,6727.976,91.535,352.087,347.596,0.0
51138.0,STARLINK-3177,PAYLOAD,2022-03-09 06:00:00,15.72684882,0.0003475,53.2174,30.9358,5.1102,341.8273,-0.005716,-0.0072184,0.0,0 STARLINK-3177,1 51138U 22005AL  22068.25001157 -.00721840  00000-0 -57160-2 0  9991,2 51138  53.2174  30.9358 0003475   5.1102 341.8273 15.72684882  9062,6729.364000000001,91.563,353.5680000000001,348.891,0.0
51138.0,STARLINK-3177,PAYLOAD,2022-03-09 14:00:01,15.72173216,0.0003232,53.2174,29.2864,6.5499,68.385,-0.0058128,-0.00718364,0.0,0 STARLINK-3177,1 51138U 22005AL  22068.58334491 -.00718364  00000-0 -58128-2 0  9999,2 51138  53.2174  29.2864 0003232   6.5499  68.3850 15.72173216  3699,6730.824000000001,91.593,354.865,350.514,0.0
51138.0,STARLINK-3177,PAYLOAD,2022-03-09 22:00:01,15.71664178,0.0003397,53.2176,27.6388,2.3804,160.003,-0.0059473999999999,-0.00719195,0.0,0 STARLINK-3177,1 51138U 22005AL  22068.91668981 -.00719195  00000-0 -59474-2 0  9998,2 51138  53.2176  27.6388 0003397   2.3804 160.0030 15.71664178  3691,6732.276999999999,91.623,356.42900000000014,351.855,0.0
51138.0,STARLINK-3177,PAYLOAD,2022-03-10 14:00:01,15.70507068,0.0006202,53.2172,24.3539,285.6068,49.7095,-0.0045489,-0.00536138,0.0,0 STARLINK-3177,1 51138U 22005AL  22069.58334491 -.00536138  00000-0 -45489-2 0  9993,2 51138  53.2172  24.3539 0006202 285.6068  49.7095 15.70507068  3670,6735.584,91.69,361.626,353.271,0.0
51138.0,STARLINK-3177,PAYLOAD,2022-03-10 20:00:01,15.70253128,0.0005237,53.2175,23.1163,299.7444,9.7208,-0.0061641,-0.00704149,0.0,0 STARLINK-3177,1 51138U 22005AL  22069.83334491 -.00704149  00000-0 -61641-2 0  9998,2 51138  53.2175  23.1163 0005237 299.7444   9.7208 15.70253128  9318,6736.31,91.705,361.703,354.647,0.0
51138.0,STARLINK-3177,PAYLOAD,2022-03-10 22:00:01,15.70141291,0.0005164,53.2176,22.7062,305.9539,114.8998,-0.0064559,-0.00731583,0.0,0 STARLINK-3177,1 51138U 22005AL  22069.91668981 -.00731583  00000-0 -64559-2 0  9994,2 51138  53.2176  22.7062 0005164 305.9539 114.8998 15.70141291  3704,6736.63,91.711,361.974,355.016,0.0
51138.0,STARLINK-3177,PAYLOAD,2022-03-11 12:00:00,15.69250704,0.0002038,53.2172,19.8348,286.6115,192.4047,-0.0067431,-0.00734847,0.0,0 STARLINK-3177,1 51138U 22005AL  22070.50001157 -.00734847  00000-0 -67431-2 0  9995,2 51138  53.2172  19.8348 0002038 286.6115 192.4047 15.69250704  9415,6739.178000000001,91.764,362.417,359.67,0.0
51138.0,STARLINK-3177,PAYLOAD,2022-03-11 14:00:01,15.69112157,0.0001445,53.2175,19.4242,288.7333,301.3096,-0.0065938999999999,-0.00715956,0.0,0 STARLINK-3177,1 51138U 22005AL  22070.58334491 -.00715956  00000-0 -65939-2 0  9994,2 51138  53.2175  19.4242 0001445 288.7333 301.3096 15.69112157  3680,6739.575,91.772,362.414,360.466,0.0
51138.0,STARLINK-3177,PAYLOAD,2022-03-11 22:00:00,15.68600462,8.75e-05,53.2176,17.7846,35.3373,278.4129,-0.0066911,-0.00711513,0.0,0 STARLINK-3177,1 51138U 22005AL  22070.91667824 -.00711513  00000-0 -66911-2 0  9996,2 51138  53.2176  17.7846 0000875  35.3373 278.4129 15.68600462  3690,6741.041,91.802,363.496,362.316,0.0
51138.0,STARLINK-3177,PAYLOAD,2022-03-12 06:00:00,15.68092613,0.0001318,53.2176,16.1485,43.9431,352.8987,-0.0068808,-0.00716187,0.0,0 STARLINK-3177,1 51138U 22005AL  22071.25001157 -.00716187  00000-0 -68808-2 0  9994,2 51138  53.2176  16.1485 0001318  43.9431 352.8987 15.68092613  9536,6742.496,91.831,365.25,363.472,0.0
51138.0,STARLINK-3177,PAYLOAD,2022-03-12 14:00:01,15.67582902,0.0001193,53.2175,14.5098,59.6641,59.6594,-0.0070239,-0.00715916,0.0,0 STARLINK-3177,1 51138U 22005AL  22071.58334491 -.00715916  00000-0 -70239-2 0  9990,2 51138  53.2175  14.5098 0001193  59.6641  59.6594 15.67582902  3696,6743.958000000001,91.861,366.627,365.018,0.0
51138.0,STARLINK-3177,PAYLOAD,2022-03-12 22:00:00,15.67072866,0.0001349,53.2177,12.8743,60.2113,140.9803,-0.0071669,-0.00715473,0.0,0 STARLINK-3177,1 51138U 22005AL  22071.91667824 -.00715473  00000-0 -71669-2 0  9992,2 51138  53.2177  12.8743 0001349  60.2113 140.9803 15.67072866  3703,6745.420999999999,91.891,368.196,366.376,0.0
51138.0,STARLINK-3177,PAYLOAD,2022-03-13 06:00:00,15.66562102,0.0001262,53.2175,11.2418,61.3267,221.1195,-0.0073063999999999,-0.00714446,0.0,0 STARLINK-3177,1 51138U 22005AL  22072.25001157 -.00714446  00000-0 -73064-2 0  9991,2 51138  53.2175  11.2418 0001262  61.3267 221.1195 15.66562102  9695,6746.887,91.921,369.603,367.9,0.0
51138.0,STARLINK-3177,PAYLOAD,2022-03-13 14:00:01,15.66053537,0.0001082,53.2174,9.6068,62.022,301.0673,-0.0074858,-0.00716794,0.0,0 STARLINK-3177,1 51138U 22005AL  22072.58334491 -.00716794  00000-0 -74858-2 0  9997,2 51138  53.2174   9.6068 0001082  62.0220 301.0673 15.66053537  3716,6748.348000000001,91.951,370.943,369.482,0.0
51138.0,STARLINK-3177,PAYLOAD,2022-03-13 22:00:01,15.65544272,0.0001299,53.2175,7.9751,49.6528,33.531,-0.007651,-0.00717665,0.0,0 STARLINK-3177,1 51138U 22005AL  22072.91668981 -.00717665  00000-0 -76510-2 0  9993,2 51138  53.2175   7.9751 0001299  49.6528  33.5310 15.65544272  3691,6749.811,91.981,372.55300000000005,370.799,0.0
51138.0,STARLINK-3177,PAYLOAD,2022-03-14 04:00:00,15.65162592,0.0001153,53.2174,6.7536,61.9061,350.8314,-0.0077839,-0.00718864,0.0,0 STARLINK-3177,1 51138U 22005AL  22073.16667824 -.00718864  00000-0 -77839-2 0  9993,2 51138  53.2174   6.7536 0001153  61.9061 350.8314 15.65162592  9838,6750.908,92.003,373.552,371.995,0.0
51138.0,STARLINK-3177,PAYLOAD,2022-03-14 14:00:01,15.64523322,0.0001228,53.2176,4.7147,70.8135,170.592,-0.007947,-0.00715666,0.0,0 STARLINK-3177,1 51138U 22005AL  22073.58335648 -.00715666  00000-0 -79470-2 0  9995,2 51138  53.2176   4.7147 0001228  70.8135 170.5920 15.64523322  3688,6752.746999999999,92.041,375.441,373.783,0.0
51138.0,STARLINK-3177,PAYLOAD,2022-03-14 20:00:01,15.64141327,0.0001440999999999,53.2177,3.4934,55.3013,154.7394,-0.0080636,-0.00715265,0.0,0 STARLINK-3177,1 51138U 22005AL  22073.83334491 -.00715265  00000-0 -80636-2 0  9999,2 51138  53.2177   3.4934 0001441  55.3013 154.7394 15.64141327  3678,6753.846,92.063,376.685,374.73800000000006,0.0
51138.0,STARLINK-3177,PAYLOAD,2022-03-14 22:00:00,15.64014866,0.0001296,53.2178,3.0871,52.2015,267.3293,-0.0081406,-0.00718178,0.0,0 STARLINK-3177,1 51138U 22005AL  22073.91667824 -.00718178  00000-0 -81406-2 0  9999,2 51138  53.2178   3.0871 0001296  52.2015 267.3293 15.64014866  9954,6754.21,92.071,376.951,375.2,0.0
51138.0,STARLINK-3177,PAYLOAD,2022-03-15 02:00:01,15.63758855,0.0001348,53.2174,2.2746,63.5833,114.813,-0.0082005,-0.00716315,0.0,0 STARLINK-3177,1 51138U 22005AL  22074.08334491 -.00716315  00000-0 -82005-2 0  9996,2 51138  53.2174   2.2746 0001348  63.5833 114.8130 15.63758855  3674,6754.948,92.086,377.723,375.902,0.0
51138.0,STARLINK-3177,PAYLOAD,2022-03-15 22:00:00,15.62482964,0.0001433,53.2175,358.2101,54.4205,136.0083,-0.0086002,-0.00714494,0.0,0 STARLINK-3177,1 51138U 22005AL  22074.91667824 -.00714494  00000-0 -86002-2 0  9994,2 51138  53.2175 358.2101 0001433  54.4205 136.0083 15.62482964  3689,6758.624,92.161,381.458,379.521,0.0
51138.0,STARLINK-3177,PAYLOAD,2022-03-16 04:00:00,15.62099469,0.0001284,53.2174,356.994,70.3466,86.9443,-0.008706,-0.00712622,0.0,0 STARLINK-3177,1 51138U 22005AL  22075.16667824 -.00712622  00000-0 -87060-2 0  9998,2 51138  53.2174 356.9940 0001284  70.3466  86.9443 15.62099469 10140,6759.731,92.184,382.463,380.728,0.0
51138.0,STARLINK-3177,PAYLOAD,2022-03-16 14:00:01,15.614622099999998,0.0001107,53.2174,354.9644,64.7768,276.5203,-0.0089341,-0.00713226,0.0,0 STARLINK-3177,1 51138U 22005AL  22075.58334491 -.00713226  00000-0 -89341-2 0  9990,2 51138  53.2174 354.9644 0001107  64.7768 276.5203 15.61462210  3707,6761.57,92.221,384.1830000000001,382.686,0.0
51138.0,STARLINK-3177,PAYLOAD,2022-03-16 20:00:01,15.61081969,0.0001206,53.2176,353.7488,68.3413,238.8981,-0.0091043,-0.00715923,0.0,0 STARLINK-3177,1 51138U 22005AL  22075.83334491 -.00715923  00000-0 -91043-2 0  9996,2 51138  53.2176 353.7488 0001206  68.3413 238.8981 15.61081969  3745,6762.668000000002,92.244,385.348,383.717,0.0
51138.0,STARLINK-3177,PAYLOAD,2022-03-17 06:00:00,15.60441169,0.0001182,53.2173,351.7261,68.6888,61.0238,-0.009257,-0.00710559,0.0,0 STARLINK-3177,1 51138U 22005AL  22076.25001157 -.00710559  00000-0 -92570-2 0  9999,2 51138  53.2173 351.7261 0001182  68.6888  61.0238 15.60441169 10314,6764.519,92.282,387.1830000000001,385.584,0.0
51138.0,STARLINK-3177,PAYLOAD,2022-03-17 14:00:01,15.59931889,0.0001281,53.2175,350.1057,64.2434,138.7593,-0.0094545,-0.00711542,0.0,0 STARLINK-3177,1 51138U 22005AL  22076.58334491 -.00711542  00000-0 -94545-2 0  9992,2 51138  53.2175 350.1057 0001281  64.2434 138.7593 15.59931889  3691,6765.991,92.312,388.723,386.989,0.0
51138.0,STARLINK-3177,PAYLOAD,2022-03-17 22:00:00,15.59423256,0.0001274999999999,53.2177,348.4898,66.2289,209.449,-0.0096767,-0.00713962,0.0,0 STARLINK-3177,1 51138U 22005AL  22076.91667824 -.00713962  00000-0 -96767-2 0  9994,2 51138  53.2177 348.4898 0001275  66.2289 209.4490 15.59423256  3707,6767.462,92.342,390.19,388.464,0.0
